[{"OBJECT_NAME":"STARLINK-34662","OBJECT_ID":"2025-150K","EPOCH":"2026-03-09T13:47:22.549056","MEAN_MOTION":14.98328392,"ECCENTRICITY":0.0003384,"INCLINATION":70.0016,"RA_OF_ASC_NODE":134.5869,"ARG_OF_PERICENTER":269.487,"MEAN_ANOMALY":90.5901,"EPHEMERIS_TYPE":0,"CLASSIFICATION_TYPE":"U","NORAD_CAT_ID":64799,"ELEMENT_SET_NO":999,"REV_AT_EPOCH":3650,"BSTAR":0.00033666,"MEAN_MOTION_DOT":3.926e-5,"MEAN_MOTION_DDOT":0},{"OBJECT_NAME":"CZ-6A DEB","OBJECT_ID":"2024-140YY","EPOCH":"2026-03-09T15:15:28.032768","MEAN_MOTION":14.69472827,"ECCENTRICITY":0.0160908,"INCLINATION":89.1265,"RA_OF_ASC_NODE":290.2206,"ARG_OF_PERICENTER":193.4345,"MEAN_ANOMALY":166.2567,"EPHEMERIS_TYPE":0,"CLASSIFICATION_TYPE":"U","NORAD_CAT_ID":61431,"ELEMENT_SET_NO":999,"REV_AT_EPOCH":8282,"BSTAR":0.00043047,"MEAN_MOTION_DOT":3.133e-5,"MEAN_MOTION_DDOT":0}]
